0 FENGYUN 1C DEB
1 31611U 99025BZR 13285.57224019  .00003264  00000-0  14443-2 0  6446
2 31611 098.9884 326.8800 0128455 297.5534 061.3045 14.19587306330422
0 FENGYUN 1C DEB
1 31611U 99025BZR 13286.07151505  .00004227  00000-0  18610-2 0  6452
2 31611 098.9896 327.3918 0129539 295.6232 093.3903 14.19596226330495
0 FENGYUN 1C DEB
1 31611U 99025BZR 13289.10143669  .00005841  00000-0  25610-2 0  6463
2 31611 098.9888 330.4684 0129735 286.8871 098.1930 14.19626729330923
0 FENGYUN 1C DEB
1 31611U 99025BZR 13292.58182337  .00005260  00000-0  23060-2 0  6477
2 31611 098.9882 334.0022 0130048 276.8519 245.5726 14.19661138331419
0 FENGYUN 1C DEB
1 31611U 99025BZR 13296.07942733  .00006693  00000-0  29237-2 0  6483
2 31611 098.9875 337.5525 0130681 266.8042 121.3500 14.19694885331911
